{
  "type": "FeatureCollection",
  "features": [
    {
      "type": "Feature",
      "properties": {
        "norad_id": 66670,
        "name": "HUNITY",
        "group": "last-30-days",
        "lat": -50.34373649253482,
        "lon": -116.43954498762791,
        "alt_km": 508.2536779594084,
        "timestamp": "2025-12-27T03:58:42.930917+00:00",
        "meta_object_name": "HUNITY",
        "meta_object_id": "2025-276E",
        "meta_epoch": "2025-12-26T17:28:37.844256",
        "meta_mean_motion": 15.18497521,
        "meta_eccentricity": 0.0011377,
        "meta_inclination": 97.4295,
        "meta_ra_of_asc_node": 72.1877,
        "meta_arg_of_pericenter": 255.2041,
        "meta_mean_anomaly": 104.7933,
        "meta_ephemeris_type": 0,
        "meta_classification_type": "U",
        "meta_norad_cat_id": 66670,
        "meta_element_set_no": 999,
        "meta_rev_at_epoch": 424,
        "meta_bstar": 0.033111,
        "meta_mean_motion_dot": 0.00734474,
        "meta_mean_motion_ddot": 0,
        "tle_line1": "1 66670U 25276E   25360.72821579  .00734474  00000+0  33111-1 0  9992",
        "tle_line2": "2 66670  97.4295  72.1877 0011377 255.2041 104.7933 15.18497521  4243"
      },
      "geometry": {
        "type": "Point",
        "coordinates": [
          -116.43954498762791,
          -50.34373649253482
        ]
      }
    },
    {
      "type": "Feature",
      "properties": {
        "norad_id": 66671,
        "name": "TRANSPORTER-15F",
        "group": "last-30-days",
        "lat": -55.37095563064491,
        "lon": -118.24731076489938,
        "alt_km": 517.7524813006703,
        "timestamp": "2025-12-27T03:58:42.930926+00:00",
        "meta_object_name": "TRANSPORTER-15F",
        "meta_object_id": "2025-276F",
        "meta_epoch": "2025-12-26T19:01:37.231392",
        "meta_mean_motion": 15.17214781,
        "meta_eccentricity": 0.0005174,
        "meta_inclination": 97.4417,
        "meta_ra_of_asc_node": 72.2964,
        "meta_arg_of_pericenter": 234.7484,
        "meta_mean_anomaly": 125.3266,
        "meta_ephemeris_type": 0,
        "meta_classification_type": "U",
        "meta_norad_cat_id": 66671,
        "meta_element_set_no": 999,
        "meta_rev_at_epoch": 425,
        "meta_bstar": 0.00066967,
        "meta_mean_motion_dot": 0.00013265,
        "meta_mean_motion_ddot": 0,
        "tle_line1": "1 66671U 25276F   25360.79279203  .00013265  00000+0  66967-3 0  9996",
        "tle_line2": "2 66671  97.4417  72.2964 0005174 234.7484 125.3266 15.17214781  4252"
      },
      "geometry": {
        "type": "Point",
        "coordinates": [
          -118.24731076489938,
          -55.37095563064491
        ]
      }
    },
    {
      "type": "Feature",
      "properties": {
        "norad_id": 66672,
        "name": "TRANSPORTER-15G",
        "group": "last-30-days",
        "lat": -21.58345671188076,
        "lon": -110.32399835917832,
        "alt_km": 517.9927300595928,
        "timestamp": "2025-12-27T03:58:42.930936+00:00",
        "meta_object_name": "TRANSPORTER-15G",
        "meta_object_id": "2025-276G",
        "meta_epoch": "2025-12-26T17:35:28.518144",
        "meta_mean_motion": 15.16664193,
        "meta_eccentricity": 0.0005564,
        "meta_inclination": 97.439,
        "meta_ra_of_asc_node": 72.2143,
        "meta_arg_of_pericenter": 233.212,
        "meta_mean_anomaly": 126.8603,
        "meta_ephemeris_type": 0,
        "meta_classification_type": "U",
        "meta_norad_cat_id": 66672,
        "meta_element_set_no": 999,
        "meta_rev_at_epoch": 424,
        "meta_bstar": 0.00043252,
        "meta_mean_motion_dot": 8.405e-05,
        "meta_mean_motion_ddot": 0,
        "tle_line1": "1 66672U 25276G   25360.73296896  .00008405  00000+0  43252-3 0  9990",
        "tle_line2": "2 66672  97.4390  72.2143 0005564 233.2120 126.8603 15.16664193  4241"
      },
      "geometry": {
        "type": "Point",
        "coordinates": [
          -110.32399835917832,
          -21.58345671188076
        ]
      }
    },
    {
      "type": "Feature",
      "properties": {
        "norad_id": 66673,
        "name": "TRANSPORTER-15H",
        "group": "last-30-days",
        "lat": -82.5541417564689,
        "lon": 160.58201712084727,
        "alt_km": 490.7672516998855,
        "timestamp": "2025-12-27T03:58:42.930946+00:00",
        "meta_object_name": "TRANSPORTER-15H",
        "meta_object_id": "2025-276H",
        "meta_epoch": "2025-12-26T15:44:57.737184",
        "meta_mean_motion": 15.22035425,
        "meta_eccentricity": 0.0024005,
        "meta_inclination": 97.4359,
        "meta_ra_of_asc_node": 72.1511,
        "meta_arg_of_pericenter": 293.5495,
        "meta_mean_anomaly": 66.322,
        "meta_ephemeris_type": 0,
        "meta_classification_type": "U",
        "meta_norad_cat_id": 66673,
        "meta_element_set_no": 999,
        "meta_rev_at_epoch": 423,
        "meta_bstar": 0.013348,
        "meta_mean_motion_dot": 0.00320359,
        "meta_mean_motion_ddot": 0,
        "tle_line1": "1 66673U 25276H   25360.65622381  .00320359  00000+0  13348-1 0  9990",
        "tle_line2": "2 66673  97.4359  72.1511 0024005 293.5495  66.3220 15.22035425  4239"
      },
      "geometry": {
        "type": "Point",
        "coordinates": [
          160.58201712084727,
          -82.5541417564689
        ]
      }
    },
    {
      "type": "Feature",
      "properties": {
        "norad_id": 66674,
        "name": "TRANSPORTER-15J",
        "group": "last-30-days",
        "lat": -32.91505664411182,
        "lon": -112.21406376962463,
        "alt_km": 518.4316472441142,
        "timestamp": "2025-12-27T03:58:42.930957+00:00",
        "meta_object_name": "TRANSPORTER-15J",
        "meta_object_id": "2025-276J",
        "meta_epoch": "2025-12-26T19:07:30.070848",
        "meta_mean_motion": 15.16788054,
        "meta_eccentricity": 0.00052,
        "meta_inclination": 97.4369,
        "meta_ra_of_asc_node": 72.2744,
        "meta_arg_of_pericenter": 236.8825,
        "meta_mean_anomaly": 123.1909,
        "meta_ephemeris_type": 0,
        "meta_classification_type": "U",
        "meta_norad_cat_id": 66674,
        "meta_element_set_no": 999,
        "meta_rev_at_epoch": 425,
        "meta_bstar": 0.00045342,
        "meta_mean_motion_dot": 8.846e-05,
        "meta_mean_motion_ddot": 0,
        "tle_line1": "1 66674U 25276J   25360.79687582  .00008846  00000+0  45342-3 0  9995",
        "tle_line2": "2 66674  97.4369  72.2744 0005200 236.8825 123.1909 15.16788054  4257"
      },
      "geometry": {
        "type": "Point",
        "coordinates": [
          -112.21406376962463,
          -32.91505664411182
        ]
      }
    },
    {
      "type": "Feature",
      "properties": {
        "norad_id": 66675,
        "name": "TRANSPORTER-15K",
        "group": "last-30-days",
        "lat": -48.4063534965738,
        "lon": -115.81626449907094,
        "alt_km": 518.0431768817953,
        "timestamp": "2025-12-27T03:58:42.930966+00:00",
        "meta_object_name": "TRANSPORTER-15K",
        "meta_object_id": "2025-276K",
        "meta_epoch": "2025-12-26T17:28:28.826688",
        "meta_mean_motion": 15.17099785,
        "meta_eccentricity": 0.0005081,
        "meta_inclination": 97.4382,
        "meta_ra_of_asc_node": 72.2179,
        "meta_arg_of_pericenter": 241.8148,
        "meta_mean_anomaly": 118.2572,
        "meta_ephemeris_type": 0,
        "meta_classification_type": "U",
        "meta_norad_cat_id": 66675,
        "meta_element_set_no": 999,
        "meta_rev_at_epoch": 424,
        "meta_bstar": 0.00060767,
        "meta_mean_motion_dot": 0.00011989,
        "meta_mean_motion_ddot": 0,
        "tle_line1": "1 66675U 25276K   25360.72811142  .00011989  00000+0  60767-3 0  9990",
        "tle_line2": "2 66675  97.4382  72.2179 0005081 241.8148 118.2572 15.17099785  4243"
      },
      "geometry": {
        "type": "Point",
        "coordinates": [
          -115.81626449907094,
          -48.4063534965738
        ]
      }
    },
    {
      "type": "Feature",
      "properties": {
        "norad_id": 66676,
        "name": "TRANSPORTER-15L",
        "group": "last-30-days",
        "lat": -43.71902090021369,
        "lon": -114.52840098069831,
        "alt_km": 497.86963806766107,
        "timestamp": "2025-12-27T03:58:42.930975+00:00",
        "meta_object_name": "TRANSPORTER-15L",
        "meta_object_id": "2025-276L",
        "meta_epoch": "2025-12-26T19:05:54.428640",
        "meta_mean_motion": 15.19846663,
        "meta_eccentricity": 0.0016361,
        "meta_inclination": 97.4379,
        "meta_ra_of_asc_node": 72.283,
        "meta_arg_of_pericenter": 248.1605,
        "meta_mean_anomaly": 111.789,
        "meta_ephemeris_type": 0,
        "meta_classification_type": "U",
        "meta_norad_cat_id": 66676,
        "meta_element_set_no": 999,
        "meta_rev_at_epoch": 425,
        "meta_bstar": 0.09698,
        "meta_mean_motion_dot": 0.02302867,
        "meta_mean_motion_ddot": 0,
        "tle_line1": "1 66676U 25276L   25360.79576885  .02302867  00000+0  96980-1 0  9994",
        "tle_line2": "2 66676  97.4379  72.2830 0016361 248.1605 111.7890 15.19846663  4254"
      },
      "geometry": {
        "type": "Point",
        "coordinates": [
          -114.52840098069831,
          -43.71902090021369
        ]
      }
    }
  ]
}